[{"OBJECT_NAME":"STARLINK-32384","OBJECT_ID":"2024-224H","EPOCH":"2026-03-09T06:20:35.094048","MEAN_MOTION":15.27577303,"ECCENTRICITY":0.00010569,"INCLINATION":42.9979,"RA_OF_ASC_NODE":160.6213,"ARG_OF_PERICENTER":249.8965,"MEAN_ANOMALY":110.1773,"EPHEMERIS_TYPE":0,"CLASSIFICATION_TYPE":"U","NORAD_CAT_ID":62146,"ELEMENT_SET_NO":999,"REV_AT_EPOCH":7241,"BSTAR":0.0011798157,"MEAN_MOTION_DOT":0.00032344,"MEAN_MOTION_DDOT":0},{"OBJECT_NAME":"SIMSAT 2","OBJECT_ID":"2000-026B","EPOCH":"2026-03-09T20:25:01.673184","MEAN_MOTION":15.29036787,"ECCENTRICITY":0.00037035,"INCLINATION":86.3514,"RA_OF_ASC_NODE":176.4271,"ARG_OF_PERICENTER":287.9875,"MEAN_ANOMALY":72.0969,"EPHEMERIS_TYPE":0,"CLASSIFICATION_TYPE":"U","NORAD_CAT_ID":26366,"ELEMENT_SET_NO":999,"REV_AT_EPOCH":42803,"BSTAR":0.00013465771,"MEAN_MOTION_DOT":3.833e-5,"MEAN_MOTION_DDOT":0}]
